NORAD_CAT_ID,OBJECT_NAME,OBJECT_TYPE,EPOCH,MEAN_MOTION,ECCENTRICITY,INCLINATION,RA_OF_ASC_NODE,ARG_OF_PERICENTER,MEAN_ANOMALY,BSTAR,MEAN_MOTION_DOT,MEAN_MOTION_DDOT,TLE_LINE0,TLE_LINE1,TLE_LINE2,SEMIMAJOR_AXIS,PERIOD,APOGEE,PERIGEE,DECAYED
55779.0,STARLINK-5817,PAYLOAD,2024-05-26 03:04:14,14.98330595,0.0002936,70.0002,49.6008,264.3697,95.7128,-7.4945e-05,-9.87e-06,0.0,0 STARLINK-5817,1 55779U 23028AQ  24147.12794335 -.00000987  00000-0 -74945-4 0  9999,2 55779  70.0002  49.6008 0002936 264.3697  95.7128 14.98330595 69282,6950.191,96.107,574.097,570.015,0.0
55779.0,STARLINK-5817,PAYLOAD,2024-05-26 20:41:43,14.98289922,0.0002742,70.0007,47.7484,268.4036,91.6809,0.00079059,9.343e-05,0.0,0 STARLINK-5817,1 55779U 23028AQ  24147.86230391  .00009343  00000-0  79059-3 0  9990,2 55779  70.0007  47.7484 0002742 268.4036  91.6809 14.98289922 69391,6950.317,96.11,574.088,570.276,0.0
55779.0,STARLINK-5817,PAYLOAD,2024-05-26 22:17:50,14.9833419,0.0003124,70.0006,47.5804,265.3033,94.7769,0.00013487,1.517e-05,0.0,0 STARLINK-5817,1 55779U 23028AQ  24147.92905495  .00001517  00000-0  13487-3 0  9999,2 55779  70.0006  47.5804 0003124 265.3033  94.7769 14.98334190 69401,6950.18,96.107,574.216,569.874,0.0
55779.0,STARLINK-5817,PAYLOAD,2024-05-27 03:06:15,14.98302769,0.0002665,70.0007,47.0746,267.362,92.7234,0.00073317,8.66e-05,0.0,0 STARLINK-5817,1 55779U 23028AQ  24148.12934163  .00008660  00000-0  73317-3 0  9990,2 55779  70.0007  47.0746 0002665 267.3620  92.7234 14.98302769 69430,6950.277,96.109,573.994,570.29,0.0
55779.0,STARLINK-5817,PAYLOAD,2024-05-27 11:06:55,14.98331021,0.0002628,70.0023,46.2341,276.7599,83.3261,8.1861e-05,8.84e-06,0.0,0 STARLINK-5817,1 55779U 23028AQ  24148.46313938  .00000884  00000-0  81861-4 0  9992,2 55779  70.0023  46.2341 0002628 276.7599  83.3261 14.98331021 69482,6950.19,96.107,573.881,570.228,0.0
55779.0,STARLINK-5817,PAYLOAD,2024-05-27 22:19:51,14.98328282,0.0002615,70.0014,45.0555,262.1664,97.9198,6.6505e-05,7.01e-06,0.0,0 STARLINK-5817,1 55779U 23028AQ  24148.93046034  .00000701  00000-0  66505-4 0  9990,2 55779  70.0014  45.0555 0002615 262.1664  97.9198 14.98328282 69557,6950.198,96.107,573.881,570.246,0.0
55779.0,STARLINK-5817,PAYLOAD,2024-05-28 03:08:15,14.98328654,0.0002752,70.0012,44.5498,260.9869,99.0979,8.8495e-05,9.63e-06,0.0,0 STARLINK-5817,1 55779U 23028AQ  24149.13073823  .00000963  00000-0  88495-4 0  9991,2 55779  70.0012  44.5498 0002752 260.9869  99.0979 14.98328654 69586,6950.197,96.107,573.975,570.149,0.0
55779.0,STARLINK-5817,PAYLOAD,2024-05-28 20:45:44,14.98333829,0.0002772,70.0011,42.6993,265.0878,94.9965,-5.5891e-05,-7.6e-06,0.0,0 STARLINK-5817,1 55779U 23028AQ  24149.86509731 -.00000760  00000-0 -55891-4 0  9994,2 55779  70.0011  42.6993 0002772 265.0878  94.9965 14.98333829 69693,6950.181,96.107,573.973,570.119,0.0
55779.0,STARLINK-5817,PAYLOAD,2024-05-28 22:21:52,14.98333744,0.0002709,70.0011,42.5309,265.6758,94.4091,-5.9148e-05,-7.99e-06,0.0,0 STARLINK-5817,1 55779U 23028AQ  24149.93185735 -.00000799  00000-0 -59148-4 0  9997,2 55779  70.0011  42.5309 0002709 265.6758  94.4091 14.98333744 69709,6950.181,96.107,573.929,570.164,0.0
55779.0,STARLINK-5817,PAYLOAD,2024-05-29 03:10:16,14.98333411,0.0002796,70.001,42.0253,265.4266,94.6574,-5.6728e-05,-7.7e-06,0.0,0 STARLINK-5817,1 55779U 23028AQ  24150.13213673 -.00000770  00000-0 -56728-4 0  9994,2 55779  70.0010  42.0253 0002796 265.4266  94.6574 14.98333411 69731,6950.182,96.107,573.991,570.104,0.0
55779.0,STARLINK-5817,PAYLOAD,2024-05-29 20:47:45,14.98332061,0.0002864,70.0007,40.1738,265.8984,94.1848,1.0852e-05,3.7e-07,0.0,0 STARLINK-5817,1 55779U 23028AQ  24150.86649461  .00000037  00000-0  10852-4 0  9994,2 55779  70.0007  40.1738 0002864 265.8984  94.1848 14.98332061 69842,6950.187,96.107,574.042,570.061,0.0
55779.0,STARLINK-5817,PAYLOAD,2024-05-29 22:23:53,14.98332245,0.0002859,70.0006,40.0055,265.9574,94.1258,1.3293e-05,6.6e-07,0.0,0 STARLINK-5817,1 55779U 23028AQ  24150.93325435  .00000066  00000-0  13293-4 0  9998,2 55779  70.0006  40.0055 0002859 265.9574  94.1258 14.98332245 69852,6950.186,96.107,574.038,570.064,0.0
55779.0,STARLINK-5817,PAYLOAD,2024-05-30 03:12:17,14.9833476,0.0002851,70.0006,39.5002,264.5675,95.5159,4.0018e-05,3.85e-06,0.0,0 STARLINK-5817,1 55779U 23028AQ  24151.13353141  .00000385  00000-0  40018-4 0  9995,2 55779  70.0006  39.5002 0002851 264.5675  95.5159 14.98334760 69888,6950.178,96.107,574.025,570.062,0.0
55779.0,STARLINK-5817,PAYLOAD,2024-05-30 20:49:45,14.9833,0.0002791,70.0008,37.6487,261.7619,98.3223,3.3393e-05,3.05e-06,0.0,0 STARLINK-5817,1 55779U 23028AQ  24151.86789336  .00000305  00000-0  33393-4 0  9994,2 55779  70.0008  37.6487 0002791 261.7619  98.3223 14.98330000 69994,6950.193,96.107,573.998,570.118,0.0
55779.0,STARLINK-5817,PAYLOAD,2024-05-30 22:25:54,14.98330073,0.0002792,70.0008,37.4803,261.7794,98.3048,3.3435e-05,3.06e-06,0.0,0 STARLINK-5817,1 55779U 23028AQ  24151.93465330  .00000306  00000-0  33435-4 0  9995,2 55779  70.0008  37.4803 0002792 261.7794  98.3048 14.98330073 70008,6950.193,96.107,573.998,570.117,0.0
55779.0,STARLINK-5817,PAYLOAD,2024-05-31 01:38:10,14.98332587,0.0002746,70.0009,37.1437,260.5271,99.5578,2.9361e-05,2.57e-06,0.0,0 STARLINK-5817,1 55779U 23028AQ  24152.06817178  .00000257  00000-0  29361-4 0  9999,2 55779  70.0009  37.1437 0002746 260.5271  99.5578 14.98332587 70020,6950.185,96.107,573.958,570.141,0.0
55779.0,STARLINK-5817,PAYLOAD,2024-05-31 20:51:46,14.98330379,0.0002984,70.0003,35.123,269.3355,90.7463,1.7145e-05,1.12e-06,0.0,0 STARLINK-5817,1 55779U 23028AQ  24152.86929180  .00000112  00000-0  17145-4 0  9991,2 55779  70.0003  35.1230 0002984 269.3355  90.7463 14.98330379 70143,6950.192,96.107,574.131,569.983,0.0
55779.0,STARLINK-5817,PAYLOAD,2024-05-31 22:27:54,14.98331245,0.0002891,70.0003,34.9549,264.846,95.2369,1.6056e-06,-7.4e-07,0.0,0 STARLINK-5817,1 55779U 23028AQ  24152.93605151 -.00000074  00000-0  16056-5 0  9997,2 55779  70.0003  34.9549 0002891 264.8460  95.2369 14.98331245 70156,6950.189,96.107,574.063,570.045,0.0
55779.0,STARLINK-5817,PAYLOAD,2024-06-01 01:40:10,14.98334221,0.0002931,70.0003,34.6183,267.9932,92.0892,2.9935e-05,2.64e-06,0.0,0 STARLINK-5817,1 55779U 23028AQ  24153.06956868  .00000264  00000-0  29935-4 0  9995,2 55779  70.0003  34.6183 0002931 267.9932  92.0892 14.98334221 70175,6950.18,96.107,574.082,570.008,0.0
55779.0,STARLINK-5817,PAYLOAD,2024-06-01 20:53:48,14.98325643,0.0002949,70.0005,32.5976,268.3239,91.7582,-1.7091e-05,-2.97e-06,0.0,0 STARLINK-5817,1 55779U 23028AQ  24153.87069484 -.00000297  00000-0 -17091-4 0  9991,2 55779  70.0005  32.5976 0002949 268.3239  91.7582 14.98325643 70291,6950.206,96.107,574.121,570.022,0.0
55779.0,STARLINK-5817,PAYLOAD,2024-06-02 09:42:52,14.98328918,0.000293,70.0004,31.2512,269.3166,90.7657,-4.6995e-05,-6.54e-06,0.0,0 STARLINK-5817,1 55779U 23028AQ  24154.40477485 -.00000654  00000-0 -46995-4 0  9997,2 55779  70.0004  31.2512 0002930 269.3166  90.7657 14.98328918 70371,6950.196,96.107,574.098,570.025,0.0
55779.0,STARLINK-5817,PAYLOAD,2024-06-02 22:31:56,14.98331392,0.0003042,70.0003,29.9044,270.2954,89.7856,4.6255e-05,4.59e-06,0.0,0 STARLINK-5817,1 55779U 23028AQ  24154.93885050  .00000459  00000-0  46255-4 0  9996,2 55779  70.0003  29.9044 0003042 270.2954  89.7856 14.98331392 70453,6950.189,96.107,574.168,569.939,0.0
55779.0,STARLINK-5817,PAYLOAD,2024-06-03 01:44:12,14.98332888,0.0003011,70.0003,29.5677,270.3413,89.7401,4.3884e-05,4.31e-06,0.0,0 STARLINK-5817,1 55779U 23028AQ  24155.07236951  .00000431  00000-0  43884-4 0  9997,2 55779  70.0003  29.5677 0003011 270.3413  89.7401 14.98332888 70477,6950.184,96.107,574.142,569.956,0.0
55779.0,STARLINK-5817,PAYLOAD,2024-06-03 22:33:57,14.98329735,0.0003036,70.0003,27.3795,270.8199,89.2612,8.4378e-05,9.14e-06,0.0,0 STARLINK-5817,1 55779U 23028AQ  24155.94024995  .00000914  00000-0  84378-4 0  9995,2 55779  70.0003  27.3795 0003036 270.8199  89.2612 14.98329735 70608,6950.194,96.107,574.169,569.949,0.0
55779.0,STARLINK-5817,PAYLOAD,2024-06-04 01:46:13,14.98330524,0.0003022,70.0003,27.0427,270.8791,89.2021,8.9684e-05,9.77e-06,0.0,0 STARLINK-5817,1 55779U 23028AQ  24156.07376930  .00000977  00000-0  89684-4 0  9993,2 55779  70.0003  27.0427 0003022 270.8791  89.2021 14.98330524 70624,6950.191,96.107,574.157,569.956,0.0
55779.0,STARLINK-5817,PAYLOAD,2024-06-04 08:10:45,14.98330205,0.0003025,70.0005,26.3694,270.9559,89.1253,5.8754e-05,6.08e-06,0.0,0 STARLINK-5817,1 55779U 23028AQ  24156.34081017  .00000608  00000-0  58754-4 0  9997,2 55779  70.0005  26.3694 0003025 270.9559  89.1253 14.98330205 70666,6950.192,96.107,574.16,569.955,0.0
55779.0,STARLINK-5817,PAYLOAD,2024-06-05 01:48:14,14.98334602,0.0002959,70.0007,24.5177,272.2613,87.8208,2.3951e-05,1.93e-06,0.0,0 STARLINK-5817,1 55779U 23028AQ  24157.07516753  .00000193  00000-0  23951-4 0  9998,2 55779  70.0007  24.5177 0002959 272.2613  87.8208 14.98334602 70777,6950.179,96.107,574.1,569.987,0.0
55779.0,STARLINK-5817,PAYLOAD,2024-06-05 08:12:46,14.98331689,0.0002989,70.0005,23.8441,272.6934,87.3883,-1.1712e-05,-2.33e-06,0.0,0 STARLINK-5817,1 55779U 23028AQ  24157.34220954 -.00000233  00000-0 -11712-4 0  9992,2 55779  70.0005  23.8441 0002989 272.6934  87.3883 14.98331689 70815,6950.188,96.107,574.13,569.975,0.0
55779.0,STARLINK-5817,PAYLOAD,2024-06-05 21:01:51,14.9834471,0.0002905,70.002,22.4977,272.0133,88.0694,-0.00031113,-3.805e-05,0.0,0 STARLINK-5817,1 55779U 23028AQ  24157.87629232 -.00003805  00000-0 -31113-3 0  9996,2 55779  70.0020  22.4977 0002905 272.0133  88.0694 14.98344710 70899,6950.147,96.106,574.031,569.993,0.0
55779.0,STARLINK-5817,PAYLOAD,2024-06-07 00:16:08,14.98328428,0.0002573,70.0024,19.6365,271.185,88.9015,1.1025e-05,3.9e-07,0.0,0 STARLINK-5817,1 55779U 23028AQ  24159.01121213  .00000039  00000-0  11025-4 0  9995,2 55779  70.0024  19.6365 0002573 271.1850  88.9015 14.98328428 71063,6950.198,96.107,573.851,570.274,0.0
